
    END TwoLineElement


    Begin TwoLineElement

    Enabled             Yes

    Source              OnlineAGI
    LastUpdated         14 Jun 2016 08:00:52.000

    SwitchMethod        Epoch
    SwitchEpoch         10 Jun 2016 18:01:46.682

    TLE
    1 41335U 16011A   16162.75123474 -.00000044  00000-0  00000+0 0  9992
    2 41335  98.6254 229.4993 0001350  91.2162 268.9149 14.26734431 16393

    END TwoLineElement


    Begin TwoLineElement

    Enabled             Yes

    Source              OnlineAGI
    LastUpdated         14 Jun 2016 08:00:52.000

    SwitchMethod        Epoch
    SwitchEpoch         10 Jun 2016 21:23:45.185

    TLE
    1 41335U 16011A   16162.89149520 -.00000044  00000-0  00000-0 0  9998
    2 41335  98.6255 229.6376 0001342  94.2904 265.8435 14.26734453 16410

    END TwoLineElement


    Begin TwoLineElement

    Enabled             Yes

    Source              OnlineAGI
    LastUpdated         14 Jun 2016 08:00:52.000

    SwitchMethod        Epoch
    SwitchEpoch         11 Jun 2016 02:26:42.870

    TLE
    1 41335U 16011A   16163.10188507 -.00000044  00000-0  00000+0 0  9990
    2 41335  98.6257 229.8448 0001323  94.7268 265.4077 14.26734604 16440

    END TwoLineElement


    Begin TwoLineElement

    Enabled             Yes

    Source              OnlineAGI
    LastUpdated         14 Jun 2016 08:00:52.000

    SwitchMethod        Epoch
    SwitchEpoch         11 Jun 2016 09:10:39.776

    TLE
    1 41335U 16011A   16163.38240482 -.00000044  00000-0  00000+0 0  9991
    2 41335  98.6255 230.1216 0001295  92.4818 267.6509 14.26734312 16484

    END TwoLineElement


    Begin TwoLineElement

    Enabled             Yes

    Source              OnlineAGI
    LastUpdated         14 Jun 2016 08:00:52.000

    SwitchMethod        Epoch
    SwitchEpoch         11 Jun 2016 17:35:35.888

    TLE
    1 41335U 16011A   16163.73305426 -.00000044  00000-0  00000+0 0  9990
    2 41335  98.6256 230.4675 0001302  86.2703 273.8627 14.26735118 16531

    END TwoLineElement


    Begin TwoLineElement

    Enabled             Yes

    Source              OnlineAGI
    LastUpdated         14 Jun 2016 08:00:52.000

    SwitchMethod        Epoch
    SwitchEpoch         12 Jun 2016 02:00:32.045

    TLE
    1 41335U 16011A   16164.08370423 -.00000044  00000-0  00000+0 0  9998
    2 41335  98.6259 230.8134 0001257  91.6336 268.5022 14.26735422 16582

    END TwoLineElement


    Begin TwoLineElement

    Enabled             Yes

    Source              OnlineAGI
    LastUpdated         14 Jun 2016 08:00:52.000

    SwitchMethod        Epoch
    SwitchEpoch         12 Jun 2016 10:25:28.148

    TLE
    1 41335U 16011A   16164.43435356 -.00000044  00000-0  00000+0 0  9994
    2 41335  98.6256 231.1595 0001223  84.7936 275.3387 14.26735235 16634

    END TwoLineElement


    Begin TwoLineElement

    Enabled             Yes

    Source              OnlineAGI
    LastUpdated         14 Jun 2016 08:00:52.000

    SwitchMethod        Epoch
    SwitchEpoch         12 Jun 2016 17:09:25.039

    TLE
    1 41335U 16011A   16164.71487314 -.00000044  00000-0  00000+0 0  9996
    2 41335  98.6254 231.4356 0001294  84.3225 275.8097 14.26735509 16676

    END TwoLineElement


    Begin TwoLineElement

    Enabled             Yes

    Source              OnlineAGI
    LastUpdated         14 Jun 2016 08:00:52.000

    SwitchMethod        Epoch
    SwitchEpoch         13 Jun 2016 09:59:17.342

    TLE
    1 41335U 16011A   16165.41617294 -.00000044  00000-0  00000+0 0  9996
    2 41335  98.6257 232.1280 0001366  90.3150 269.8176 14.26734839 16774

    END TwoLineElement


    Begin TwoLineElement

    Enabled             Yes

    Source              OnlineAGI
    LastUpdated         14 Jun 2016 08:00:52.000

    SwitchMethod        Epoch
    SwitchEpoch         13 Jun 2016 18:24:13.501

    TLE
    1 41335U 16011A   16165.76682293 -.00000044  00000-0  00000+0 0  9995
    2 41335  98.6257 232.4735 0001482  93.1434 266.9913 14.26734879 16824
